[{"OBJECT_NAME":"GEOSCAN 5 (RS92S5)","OBJECT_ID":"2025-155R","EPOCH":"2026-03-09T22:01:07.273920","MEAN_MOTION":15.30265233,"ECCENTRICITY":0.00070849,"INCLINATION":97.4462,"RA_OF_ASC_NODE":37.7456,"ARG_OF_PERICENTER":154.5846,"MEAN_ANOMALY":205.5745,"EPHEMERIS_TYPE":0,"CLASSIFICATION_TYPE":"U","NORAD_CAT_ID":64891,"ELEMENT_SET_NO":999,"REV_AT_EPOCH":6562,"BSTAR":0.00068639307,"MEAN_MOTION_DOT":0.00020065,"MEAN_MOTION_DDOT":0},{"OBJECT_NAME":"STARLINK-35815","OBJECT_ID":"2025-268W","EPOCH":"2026-03-08T03:31:45.128640","MEAN_MOTION":15.27625122,"ECCENTRICITY":0.00012658,"INCLINATION":42.9995,"RA_OF_ASC_NODE":355.788,"ARG_OF_PERICENTER":285.0834,"MEAN_ANOMALY":74.9878,"EPHEMERIS_TYPE":0,"CLASSIFICATION_TYPE":"U","NORAD_CAT_ID":66577,"ELEMENT_SET_NO":999,"REV_AT_EPOCH":1772,"BSTAR":0.0018510755,"MEAN_MOTION_DOT":0.000511,"MEAN_MOTION_DDOT":0}]
